ONEWEB-0102             
1 47258U 20100A   25241.90882121  .00000358  00000+0  95888-3 0  9990
2 47258  87.8877  48.5658 0001573  96.0040 264.1268 13.12442936226525
ONEWEB-0109             
1 47259U 20100B   25241.91693248  .00000423  00000+0  11411-2 0  9994
2 47259  87.8870  48.5333 0001563  93.4394 266.6914 13.12442428226353
ONEWEB-0110             
1 47260U 20100C   25241.94286347 -.00000245  00000+0 -71529-3 0  9998
2 47260  87.8874  48.5120 0001598  82.5396 277.5915 13.12441029226529
ONEWEB-0111             
1 47261U 20100D   25241.89745802  .00000100  00000+0  24369-3 0  9997
2 47261  87.8880  48.5380 0001663  93.0723 267.0596 13.12442868226351
ONEWEB-0114             
1 47262U 20100E   25241.92827914  .00000237  00000+0  62306-3 0  9991
2 47262  87.8870  48.5261 0001561 103.0018 257.1285 13.12441536226317
ONEWEB-0117             
1 47263U 20100F   25241.92017259  .00000394  00000+0  10586-2 0  9991
2 47263  87.8880  48.5252 0001705  90.7624 269.3699 13.12442141226322
ONEWEB-0118             
1 47264U 20100G   25241.95260248 -.00000410  00000+0 -11754-2 0  9992
2 47264  87.8876  48.5181 0001842 103.1522 256.9812 13.12441173226522
ONEWEB-0119             
1 47265U 20100H   25241.90395289  .00000245  00000+0  64694-3 0  9998
2 47265  87.8875  48.5658 0001647  91.2133 268.9185 13.12443787226494
